{
  "type": "FeatureCollection",
  "features": [
    {
      "type": "Feature",
      "properties": {
        "norad_id": 31094,
        "name": "FENGYUN 1C DEB",
        "group": "fengyun-1c-debris",
        "lat": -51.7813233334364,
        "lon": 36.52542520155314,
        "alt_km": 949.0464239062085,
        "timestamp": "2025-12-26T11:25:45.474511+00:00",
        "meta_object_name": "FENGYUN 1C DEB",
        "meta_object_id": "1999-025BGQ",
        "meta_epoch": "2025-12-25T13:46:06.985344",
        "meta_mean_motion": 14.02106243,
        "meta_eccentricity": 0.0106527,
        "meta_inclination": 98.8564,
        "meta_ra_of_asc_node": 227.0685,
        "meta_arg_of_pericenter": 11.5055,
        "meta_mean_anomaly": 348.851,
        "meta_ephemeris_type": 0,
        "meta_classification_type": "U",
        "meta_norad_cat_id": 31094,
        "meta_element_set_no": 999,
        "meta_rev_at_epoch": 95799,
        "meta_bstar": 0.0017442,
        "meta_mean_motion_dot": 2.758e-05,
        "meta_mean_motion_ddot": 0,
        "tle_line1": "1 31094U 99025BGQ 25359.57369196  .00002758  00000+0  17442-2 0  9993",
        "tle_line2": "2 31094  98.8564 227.0685 0106527  11.5055 348.8510 14.02106243957998"
      },
      "geometry": {
        "type": "Point",
        "coordinates": [
          36.52542520155314,
          -51.7813233334364
        ]
      }
    },
    {
      "type": "Feature",
      "properties": {
        "norad_id": 31095,
        "name": "FENGYUN 1C DEB",
        "group": "fengyun-1c-debris",
        "lat": -61.884288300705556,
        "lon": 156.571013276879,
        "alt_km": 1517.064382393828,
        "timestamp": "2025-12-26T11:25:45.474520+00:00",
        "meta_object_name": "FENGYUN 1C DEB",
        "meta_object_id": "1999-025BGR",
        "meta_epoch": "2025-12-24T02:48:44.654400",
        "meta_mean_motion": 13.06670618,
        "meta_eccentricity": 0.05001499,
        "meta_inclination": 98.5625,
        "meta_ra_of_asc_node": 138.3042,
        "meta_arg_of_pericenter": 164.6493,
        "meta_mean_anomaly": 197.044,
        "meta_ephemeris_type": 0,
        "meta_classification_type": "U",
        "meta_norad_cat_id": 31095,
        "meta_element_set_no": 999,
        "meta_rev_at_epoch": 89596,
        "meta_bstar": -0.00036805939,
        "meta_mean_motion_dot": -2.53e-06,
        "meta_mean_motion_ddot": 0,
        "tle_line1": "1 31095U 99025BGR 25358.11718350 -.00000253  00000+0 -36806-3 0  9999",
        "tle_line2": "2 31095  98.5625 138.3042 0500149 164.6493 197.0440 13.06670618895968"
      },
      "geometry": {
        "type": "Point",
        "coordinates": [
          156.571013276879,
          -61.884288300705556
        ]
      }
    },
    {
      "type": "Feature",
      "properties": {
        "norad_id": 31097,
        "name": "FENGYUN 1C DEB",
        "group": "fengyun-1c-debris",
        "lat": -19.663169760363342,
        "lon": 127.08398987842776,
        "alt_km": 743.4574665093733,
        "timestamp": "2025-12-26T11:25:45.474530+00:00",
        "meta_object_name": "FENGYUN 1C DEB",
        "meta_object_id": "1999-025BGT",
        "meta_epoch": "2025-12-25T07:27:02.384064",
        "meta_mean_motion": 14.47224883,
        "meta_eccentricity": 0.0015883,
        "meta_inclination": 98.8596,
        "meta_ra_of_asc_node": 122.6694,
        "meta_arg_of_pericenter": 234.49,
        "meta_mean_anomaly": 155.2771,
        "meta_ephemeris_type": 0,
        "meta_classification_type": "U",
        "meta_norad_cat_id": 31097,
        "meta_element_set_no": 999,
        "meta_rev_at_epoch": 97220,
        "meta_bstar": 0.0029972,
        "meta_mean_motion_dot": 0.00010937,
        "meta_mean_motion_ddot": 0,
        "tle_line1": "1 31097U 99025BGT 25359.31044426  .00010937  00000+0  29972-2 0  9993",
        "tle_line2": "2 31097  98.8596 122.6694 0015883 234.4900 155.2771 14.47224883972205"
      },
      "geometry": {
        "type": "Point",
        "coordinates": [
          127.08398987842776,
          -19.663169760363342
        ]
      }
    },
    {
      "type": "Feature",
      "properties": {
        "norad_id": 31098,
        "name": "FENGYUN 1C DEB",
        "group": "fengyun-1c-debris",
        "lat": 70.98432481496029,
        "lon": 92.24278450323679,
        "alt_km": 721.0380055495489,
        "timestamp": "2025-12-26T11:25:45.474540+00:00",
        "meta_object_name": "FENGYUN 1C DEB",
        "meta_object_id": "1999-025BGU",
        "meta_epoch": "2025-12-26T01:10:06.986208",
        "meta_mean_motion": 14.51833807,
        "meta_eccentricity": 0.0015469,
        "meta_inclination": 98.8694,
        "meta_ra_of_asc_node": 118.734,
        "meta_arg_of_pericenter": 213.5539,
        "meta_mean_anomaly": 146.4675,
        "meta_ephemeris_type": 0,
        "meta_classification_type": "U",
        "meta_norad_cat_id": 31098,
        "meta_element_set_no": 999,
        "meta_rev_at_epoch": 97150,
        "meta_bstar": 0.0031026,
        "meta_mean_motion_dot": 0.0001248,
        "meta_mean_motion_ddot": 0,
        "tle_line1": "1 31098U 99025BGU 25360.04869197  .00012480  00000+0  31026-2 0  9994",
        "tle_line2": "2 31098  98.8694 118.7340 0015469 213.5539 146.4675 14.51833807971509"
      },
      "geometry": {
        "type": "Point",
        "coordinates": [
          92.24278450323679,
          70.98432481496029
        ]
      }
    },
    {
      "type": "Feature",
      "properties": {
        "norad_id": 31099,
        "name": "FENGYUN 1C DEB",
        "group": "fengyun-1c-debris",
        "lat": 13.413099570329068,
        "lon": 75.42654970231706,
        "alt_km": 787.5884400337163,
        "timestamp": "2025-12-26T11:25:45.474550+00:00",
        "meta_object_name": "FENGYUN 1C DEB",
        "meta_object_id": "1999-025BGV",
        "meta_epoch": "2025-12-25T16:17:21.025248",
        "meta_mean_motion": 14.27940091,
        "meta_eccentricity": 0.00624416,
        "meta_inclination": 98.9378,
        "meta_ra_of_asc_node": 252.46,
        "meta_arg_of_pericenter": 243.3659,
        "meta_mean_anomaly": 146.2974,
        "meta_ephemeris_type": 0,
        "meta_classification_type": "U",
        "meta_norad_cat_id": 31099,
        "meta_element_set_no": 999,
        "meta_rev_at_epoch": 97656,
        "meta_bstar": 0.00028178229,
        "meta_mean_motion_dot": 6.66e-06,
        "meta_mean_motion_ddot": 0,
        "tle_line1": "1 31099U 99025BGV 25359.67871557  .00000666  00000+0  28178-3 0  9993",
        "tle_line2": "2 31099  98.9378 252.4600 0062441 243.3659 146.2974 14.27940091976569"
      },
      "geometry": {
        "type": "Point",
        "coordinates": [
          75.42654970231706,
          13.413099570329068
        ]
      }
    },
    {
      "type": "Feature",
      "properties": {
        "norad_id": 31146,
        "name": "FENGYUN 1C DEB",
        "group": "fengyun-1c-debris",
        "lat": 13.633777181042984,
        "lon": -70.48550045555783,
        "alt_km": 858.3222406950326,
        "timestamp": "2025-12-26T11:25:45.474559+00:00",
        "meta_object_name": "FENGYUN 1C DEB",
        "meta_object_id": "1999-025BGY",
        "meta_epoch": "2025-12-25T18:32:37.891392",
        "meta_mean_motion": 14.27730951,
        "meta_eccentricity": 0.02131565,
        "meta_inclination": 99.0429,
        "meta_ra_of_asc_node": 290.9998,
        "meta_arg_of_pericenter": 129.3599,
        "meta_mean_anomaly": 232.6681,
        "meta_ephemeris_type": 0,
        "meta_classification_type": "U",
        "meta_norad_cat_id": 31146,
        "meta_element_set_no": 999,
        "meta_rev_at_epoch": 96951,
        "meta_bstar": 0.00034326931,
        "meta_mean_motion_dot": 1.028e-05,
        "meta_mean_motion_ddot": 0,
        "tle_line1": "1 31146U 99025BGY 25359.77266078  .00001028  00000+0  34327-3 0  9999",
        "tle_line2": "2 31146  99.0429 290.9998 0213156 129.3599 232.6681 14.27730951969519"
      },
      "geometry": {
        "type": "Point",
        "coordinates": [
          -70.48550045555783,
          13.633777181042984
        ]
      }
    },
    {
      "type": "Feature",
      "properties": {
        "norad_id": 31148,
        "name": "FENGYUN 1C DEB",
        "group": "fengyun-1c-debris",
        "lat": -56.80121464032902,
        "lon": 52.80824456749221,
        "alt_km": 819.0684619476096,
        "timestamp": "2025-12-26T11:25:45.474568+00:00",
        "meta_object_name": "FENGYUN 1C DEB",
        "meta_object_id": "1999-025BHA",
        "meta_epoch": "2025-12-26T03:40:20.263584",
        "meta_mean_motion": 14.43442789,
        "meta_eccentricity": 0.0136617,
        "meta_inclination": 98.8654,
        "meta_ra_of_asc_node": 246.2713,
        "meta_arg_of_pericenter": 11.1454,
        "meta_mean_anomaly": 349.2709,
        "meta_ephemeris_type": 0,
        "meta_classification_type": "U",
        "meta_norad_cat_id": 31148,
        "meta_element_set_no": 999,
        "meta_rev_at_epoch": 97724,
        "meta_bstar": 0.00094484,
        "meta_mean_motion_dot": 3.523e-05,
        "meta_mean_motion_ddot": 0,
        "tle_line1": "1 31148U 99025BHA 25360.15301231  .00003523  00000+0  94484-3 0  9998",
        "tle_line2": "2 31148  98.8654 246.2713 0136617  11.1454 349.2709 14.43442789977243"
      },
      "geometry": {
        "type": "Point",
        "coordinates": [
          52.80824456749221,
          -56.80121464032902
        ]
      }
    }
  ]
}